NORAD_CAT_ID,OBJECT_NAME,OBJECT_TYPE,EPOCH,MEAN_MOTION,ECCENTRICITY,INCLINATION,RA_OF_ASC_NODE,ARG_OF_PERICENTER,MEAN_ANOMALY,BSTAR,MEAN_MOTION_DOT,MEAN_MOTION_DDOT,TLE_LINE0,TLE_LINE1,TLE_LINE2,SEMIMAJOR_AXIS,PERIOD,APOGEE,PERIGEE,DECAYED
52629.0,STARLINK-4022,PAYLOAD,2022-06-28 04:00:00,15.7325391,0.0002438,53.2131,220.2082,19.9296,89.3131,-0.00047132,-0.00066411,0.0,0 STARLINK-4022,1 52629U 22052AH  22179.16667824 -.00066411  00000-0 -47132-3 0  9996,2 52629  53.2131 220.2082 0002438  19.9296  89.3131 15.73253910  7367,6727.741,91.53,351.247,347.966,0.0
52629.0,STARLINK-4022,PAYLOAD,2022-06-28 14:00:01,15.73154791,0.0002796,53.2128,218.1482,19.9693,290.4605,0.00050671,0.00070967,0.0,0 STARLINK-4022,1 52629U 22052AH  22179.58334491  .00070967  00000-0  50671-3 0  9994,2 52629  53.2128 218.1482 0002796  19.9693 290.4605 15.73154791  1307,6728.024,91.536,351.77,348.0080000000001,0.0
52629.0,STARLINK-4022,PAYLOAD,2022-06-28 22:00:00,15.73176003,0.0002585,53.2131,216.4965,22.8366,16.5071,0.00043774,0.00061205,0.0,0 STARLINK-4022,1 52629U 22052AH  22179.91667824  .00061205  00000-0  43774-3 0  9991,2 52629  53.2131 216.4965 0002585  22.8366  16.5071 15.73176003  1308,6727.964,91.535,351.5680000000001,348.089,0.0
52629.0,STARLINK-4022,PAYLOAD,2022-06-29 14:00:01,15.73244053,0.0002861,53.2125,213.1992,21.2468,195.976,-0.00020081,-0.00028768,0.0,0 STARLINK-4022,1 52629U 22052AH  22180.58334491 -.00028768  00000-0 -20081-3 0  9992,2 52629  53.2125 213.1992 0002861  21.2468 195.9760 15.73244053  1306,6727.77,91.531,351.559,347.71,0.0
52629.0,STARLINK-4022,PAYLOAD,2022-06-29 22:00:00,15.73176096,0.0002571,53.2125,211.5475,20.9201,285.2852,0.00035298,0.00049162,0.0,0 STARLINK-4022,1 52629U 22052AH  22180.91667824  .00049162  00000-0  35298-3 0  9993,2 52629  53.2125 211.5475 0002571  20.9201 285.2852 15.73176096  1309,6727.9630000000025,91.535,351.55800000000005,348.099,0.0
52629.0,STARLINK-4022,PAYLOAD,2022-06-30 04:00:00,15.73220674,0.0002558,53.2128,210.3108,21.7104,261.1785,6.0883e-05,7.939e-05,0.0,0 STARLINK-4022,1 52629U 22052AH  22181.16667824  .00007939  00000-0  60883-4 0  9996,2 52629  53.2128 210.3108 0002558  21.7104 261.1785 15.73220674  7674,6727.8359999999975,91.532,351.422,347.98,0.0
52629.0,STARLINK-4022,PAYLOAD,2022-06-30 14:00:01,15.73206176,0.0002797,53.2125,208.2502,16.5871,107.4955,-0.00020868,-0.0002982,0.0,0 STARLINK-4022,1 52629U 22052AH  22181.58334491 -.00029820  00000-0 -20868-3 0  9996,2 52629  53.2125 208.2502 0002797  16.5871 107.4955 15.73206176  1309,6727.878000000002,91.533,351.624,347.861,0.0
52629.0,STARLINK-4022,PAYLOAD,2022-06-30 22:00:00,15.73159531,0.0002554,53.213,206.5982,17.5077,195.511,0.00048116,0.00067339,0.0,0 STARLINK-4022,1 52629U 22052AH  22181.91667824  .00067339  00000-0  48116-3 0  9993,2 52629  53.2130 206.5982 0002554  17.5077 195.5110 15.73159531  1301,6728.011,91.536,351.594,348.157,0.0
52629.0,STARLINK-4022,PAYLOAD,2022-07-01 04:00:00,15.73230125,0.0002531,53.2145,205.3606,20.1784,169.5086,-0.00028277,-0.00040176,0.0,0 STARLINK-4022,1 52629U 22052AH  22182.16667824 -.00040176  00000-0 -28277-3 0  9999,2 52629  53.2145 205.3606 0002531  20.1784 169.5086 15.73230125  7833,6727.809,91.531,351.37699999999984,347.971,0.0
52629.0,STARLINK-4022,PAYLOAD,2022-07-01 14:00:01,15.73147365,0.0002506,53.2159,203.3005,17.2333,13.6438,-0.0048193,-0.006276,0.0,0 STARLINK-4022,1 52629U 22052AH  22182.58334491 -.00627600  00000-0 -48193-2 0  9997,2 52629  53.2159 203.3005 0002506  17.2333  13.6438 15.73147365  1307,6728.045,91.536,351.596,348.224,0.0
52629.0,STARLINK-4022,PAYLOAD,2022-07-01 22:00:00,15.72717764,0.0002697,53.2173,201.6504,13.055,106.4338,-0.008495,-0.01051761,0.0,0 STARLINK-4022,1 52629U 22052AH  22182.91667824 -.01051761  00000-0 -84950-2 0  9994,2 52629  53.2173 201.6504 0002697  13.0550 106.4338 15.72717764  1309,6729.27,91.561,352.95,349.321,0.0
52629.0,STARLINK-4022,PAYLOAD,2022-07-02 12:00:00,15.71386007,0.0002249,53.2173,198.7746,6.4985,176.1884,-0.008947,-0.01046714,0.0,0 STARLINK-4022,1 52629U 22052AH  22183.50001157 -.01046714  00000-0 -89470-2 0  9995,2 52629  53.2173 198.7746 0002249   6.4985 176.1884 15.71386007  8043,6733.071999999999,91.639,356.451,353.423,0.0
52629.0,STARLINK-4022,PAYLOAD,2022-07-02 14:00:01,15.71200023,0.0002197,53.2171,198.3634,10.2422,284.1006,-0.0090683,-0.01051952,0.0,0 STARLINK-4022,1 52629U 22052AH  22183.58334491 -.01051952  00000-0 -90683-2 0  9991,2 52629  53.2171 198.3634 0002197  10.2422 284.1006 15.71200023  1305,6733.603,91.65,356.9480000000001,353.98900000000015,0.0
52629.0,STARLINK-4022,PAYLOAD,2022-07-02 22:00:00,15.70440201,0.0002812,53.2173,196.7196,349.499,30.9046,-0.0093666,-0.01052434,0.0,0 STARLINK-4022,1 52629U 22052AH  22183.91667824 -.01052434  00000-0 -93666-2 0  9997,2 52629  53.2173 196.7196 0002812 349.4990  30.9046 15.70440201  1307,6735.775,91.694,359.534,355.746,0.0
52629.0,STARLINK-4022,PAYLOAD,2022-07-03 04:00:00,15.69871751,0.0003025,53.2177,195.4905,5.3215,349.0263,-0.0096086,-0.01054051,0.0,0 STARLINK-4022,1 52629U 22052AH  22184.16667824 -.01054051  00000-0 -96086-2 0  9991,2 52629  53.2177 195.4905 0003025   5.3215 349.0263 15.69871751  8140,6737.401,91.727,361.304,357.228,0.0
52629.0,STARLINK-4022,PAYLOAD,2022-07-03 14:00:01,15.68926203,9.1e-06,53.2172,193.4436,183.6449,6.1371,-0.010067,-0.01059686,0.0,0 STARLINK-4022,1 52629U 22052AH  22184.58334491 -.01059686  00000-0 -10067-1 0  9991,2 52629  53.2172 193.4436 0000091 183.6449   6.1371 15.68926203  1305,6740.108,91.783,362.034,361.911,0.0
52629.0,STARLINK-4022,PAYLOAD,2022-07-03 20:00:01,15.68351237,0.000102,53.2175,192.2147,55.8235,106.5365,-0.010203,-0.01050097,0.0,0 STARLINK-4022,1 52629U 22052AH  22184.83334491 -.01050097  00000-0 -10203-1 0  9998,2 52629  53.2175 192.2147 0001020  55.8235 106.5365 15.68351237  8258,6741.755,91.816,364.307,362.932,0.0
52629.0,STARLINK-4022,PAYLOAD,2022-07-03 22:00:00,15.6816044,0.0001059,53.2173,191.8055,69.6543,203.4509,-0.010271,-0.01048935,0.0,0 STARLINK-4022,1 52629U 22052AH  22184.91667824 -.01048935  00000-0 -10271-1 0  9999,2 52629  53.2173 191.8055 0001059  69.6543 203.4509 15.68160440  1306,6742.302,91.827,364.881,363.453,0.0
52629.0,STARLINK-4022,PAYLOAD,2022-07-04 12:00:00,15.66831823,9.9e-05,53.2172,188.9491,84.0802,242.6392,-0.010834,-0.01047782,0.0,0 STARLINK-4022,1 52629U 22052AH  22185.50001157 -.01047782  00000-0 -10834-1 0  9990,2 52629  53.2172 188.9491 0000990  84.0802 242.6392 15.66831823  8353,6746.113,91.905,368.645,367.31,0.0
52629.0,STARLINK-4022,PAYLOAD,2022-07-04 14:00:01,15.66643666,0.000105,53.2171,188.5405,77.9489,359.0584,-0.010956,-0.01051124,0.0,0 STARLINK-4022,1 52629U 22052AH  22185.58334491 -.01051124  00000-0 -10956-1 0  9998,2 52629  53.2171 188.5405 0001050  77.9489 359.0584 15.66643666  1303,6746.653,91.916,369.226,367.809,0.0
52629.0,STARLINK-4022,PAYLOAD,2022-07-04 22:00:00,15.65883838,0.000124,53.2172,186.9081,69.5727,88.01899999999998,-0.011304,-0.01051562,0.0,0 STARLINK-4022,1 52629U 22052AH  22185.91667824 -.01051562  00000-0 -11304-1 0  9998,2 52629  53.2172 186.9081 0001240  69.5727  88.0190 15.65883838  1307,6748.835,91.961,371.537,369.86300000000006,0.0
52629.0,STARLINK-4022,PAYLOAD,2022-07-05 04:00:00,15.65312686,0.0001322,53.2174,185.6877,57.8551,69.5746,-0.011525,-0.01048088,0.0,0 STARLINK-4022,1 52629U 22052AH  22186.16667824 -.01048088  00000-0 -11525-1 0  9990,2 52629  53.2174 185.6877 0001322  57.8551  69.5746 15.65312686  8467,6750.477,91.994,373.234,371.449,0.0
52629.0,STARLINK-4022,PAYLOAD,2022-07-05 14:00:01,15.64365676,0.0001018,53.2173,183.654,90.9004,225.1181,-0.012014,-0.0105132,0.0,0 STARLINK-4022,1 52629U 22052AH  22186.58334491 -.01051320  00000-0 -12014-1 0  9994,2 52629  53.2173 183.6540 0001018  90.9004 225.1181 15.64365676  1309,6753.201,92.05,375.753,374.378,0.0
52629.0,STARLINK-4022,PAYLOAD,2022-07-05 22:00:00,15.63603293,0.0001045,53.2175,182.0273,69.8592,324.0066,-0.012335,-0.01047546,0.0,0 STARLINK-4022,1 52629U 22052AH  22186.91667824 -.01047546  00000-0 -12335-1 0  9991,2 52629  53.2175 182.0273 0001045  69.8592 324.0066 15.63603293  1304,6755.396,92.095,377.967,376.555,0.0
52629.0,STARLINK-4022,PAYLOAD,2022-07-06 12:00:02,15.62275569,0.0001085,53.2171,179.1898,72.2539,5.7077,-0.013001,-0.01063995,0.0,0 STARLINK-4022,1 52629U 22052AH  22187.50002315 -.01063995  00000-0 -13001-1 0  9992,2 52629  53.2171 179.1898 0001085  72.2539   5.7077 15.62275569  8675,6759.223000000001,92.173,381.821,380.354,0.0
52629.0,STARLINK-4022,PAYLOAD,2022-07-06 14:00:01,15.62086966,0.0001232,53.2172,178.7843,80.6021,106.214,-0.0131389999999999,-0.01067113,0.0,0 STARLINK-4022,1 52629U 22052AH  22187.58334491 -.01067113  00000-0 -13139-1 0  9991,2 52629  53.2172 178.7843 0001232  80.6021 106.2140 15.62086966  1306,6759.767,92.184,382.464,380.799,0.0
52629.0,STARLINK-4022,PAYLOAD,2022-07-06 22:00:00,15.61325099,0.0001175,53.2173,177.1631,93.2667,168.658,-0.01348,-0.01063083,0.0,0 STARLINK-4022,1 52629U 22052AH  22187.91667824 -.01063083  00000-0 -13480-1 0  9998,2 52629  53.2173 177.1631 0001175  93.2667 168.6580 15.61325099  1309,6761.965,92.229,384.625,383.036,0.0
52629.0,STARLINK-4022,PAYLOAD,2022-07-07 14:00:01,15.59806998,0.0001034,53.2173,173.9311,77.1209,332.2788,-0.014303,-0.01063551,0.0,0 STARLINK-4022,1 52629U 22052AH  22188.58334491 -.01063551  00000-0 -14303-1 0  9998,2 52629  53.2173 173.9311 0001034  77.1209 332.2788 15.59806998  1303,6766.352,92.319,388.917,387.518,0.0
52629.0,STARLINK-4022,PAYLOAD,2022-07-07 20:00:01,15.59234957,9.9e-05,53.2173,172.7189,88.57799999999996,285.1865,-0.014571,-0.01060264,0.0,0 STARLINK-4022,1 52629U 22052AH  22188.83334491 -.01060264  00000-0 -14571-1 0  9991,2 52629  53.2173 172.7189 0000990  88.5780 285.1865 15.59234957  8874,6768.007,92.353,390.542,389.202,0.0
